ONEWEB-0160             
1 48060U 21025U   24042.14096621  .00000188  00000+0  48034-3 0  9997
2 48060  87.9000 130.8374 0002782 107.2775 252.8658 13.13469991141051
ONEWEB-0163             
1 48061U 21025V   24041.74578379 -.00000162  00000+0 -47869-3 0  9997
2 48061  87.8998 130.9117 0001472 104.1976 255.9317 13.13471232141122
ONEWEB-0159             
1 48062U 21025W   24041.73466907 -.00000296  00000+0 -84575-3 0  9993
2 48062  87.8998 130.8988 0001556 110.8190 249.3105 13.13471446141043
ONEWEB-0164             
1 48063U 21025X   24042.17429210  .00000121  00000+0  29659-3 0  9996
2 48063  87.8998 130.8211 0001839 100.6108 259.5228 13.13469947141090
ONEWEB-0167             
1 48064U 21025Y   24041.74658389 -.00000099  00000+0 -30581-3 0  9992
2 48064  87.8999 130.9161 0001549 103.0078 257.1224 13.13469871141016
ONEWEB-0166             
1 48065U 21025Z   24041.76800646  .00000331  00000+0  87052-3 0  9992
2 48065  87.8995 130.9003 0001701 114.0911 246.0396 13.13470520141094
ONEWEB-0151             
1 48066U 21025AA  24042.30284024  .00000397  00000+0  10531-2 0  9999
2 48066  87.8998 130.8048 0001922  98.0977 262.0371 13.13471418141115
ONEWEB-0170             
1 48067U 21025AB  24042.31078010  .00000425  00000+0  11276-2 0  9996
2 48067  87.8999 130.8041 0002366  94.7209 265.4190 13.13470756141068
